NORAD_CAT_ID,OBJECT_NAME,OBJECT_TYPE,EPOCH,MEAN_MOTION,ECCENTRICITY,INCLINATION,RA_OF_ASC_NODE,ARG_OF_PERICENTER,MEAN_ANOMALY,BSTAR,MEAN_MOTION_DOT,MEAN_MOTION_DDOT,TLE_LINE0,TLE_LINE1,TLE_LINE2,SEMIMAJOR_AXIS,PERIOD,APOGEE,PERIGEE,DECAYED
55414.0,STARLINK-5620,PAYLOAD,2023-05-28 06:00:00,15.015932,0.0003246,69.9981,127.2058,272.78,342.4079,-0.073627,-0.00886288,0.0,0 STARLINK-5620,1 55414U 23014Z   23148.25001157 -.00886288  00000-0 -73627-1 0  9996,2 55414  69.9981 127.2058 0003246 272.7800 342.4079 15.01593200  1308,6940.12,95.898,564.238,559.732,0.0
55414.0,STARLINK-5620,PAYLOAD,2023-05-28 22:00:00,15.00334821,0.0003169,69.998,125.5178,266.4733,349.9675,-0.081636,-0.00956675,0.0,0 STARLINK-5620,1 55414U 23014Z   23148.91667824 -.00956675  00000-0 -81636-1 0  9995,2 55414  69.9980 125.5178 0003169 266.4733 349.9675 15.00334821  1305,6944.0,95.979,568.066,563.664,0.0
55414.0,STARLINK-5620,PAYLOAD,2023-05-29 06:00:00,14.99454645,0.0003071,69.998,124.6749,274.5915,341.3624,-0.019373,-0.00230457,0.0,0 STARLINK-5620,1 55414U 23014Z   23149.25001157 -.00230457  00000-0 -19373-1 0  9996,2 55414  69.9980 124.6749 0003071 274.5915 341.3624 14.99454645 19452,6946.717,96.035,570.716,566.449,0.0
55414.0,STARLINK-5620,PAYLOAD,2023-05-29 14:00:01,14.99319221,0.0002988,69.998,123.8328,272.7622,341.9156,-0.004593,-0.00055876,0.0,0 STARLINK-5620,1 55414U 23014Z   23149.58334491 -.00055876  00000-0 -45930-2 0  9991,2 55414  69.9980 123.8328 0002988 272.7622 341.9156 14.99319221 19509,6947.135,96.044,571.076,566.925,0.0
55414.0,STARLINK-5620,PAYLOAD,2023-05-29 20:52:57,15.00453628,0.0002754,69.9969,123.1113,256.7903,103.295,-0.015559,-0.0019105,0.0,0 STARLINK-5620,1 55414U 23014Z   23149.87010816 -.00191050  00000-0 -15559-1 0  9993,2 55414  69.9969 123.1113 0002754 256.7903 103.2950 15.00453628 19555,6943.633,95.971,567.411,563.586,0.0
55414.0,STARLINK-5620,PAYLOAD,2023-05-29 22:00:00,14.99295874,0.0002994,69.9989,122.9913,267.0676,346.2511,0.0015244,0.00018606,0.0,0 STARLINK-5620,1 55414U 23014Z   23149.91667824  .00018606  00000-0  15244-2 0  9990,2 55414  69.9989 122.9913 0002994 267.0676 346.2511 14.99295874 19556,6947.208,96.045,571.153,566.993,0.0
55414.0,STARLINK-5620,PAYLOAD,2023-05-30 14:00:01,14.99319628,0.000297,69.9993,121.3074,271.6129,339.0036,-0.0034498,-0.00042074,0.0,0 STARLINK-5620,1 55414U 23014Z   23150.58334491 -.00042074  00000-0 -34498-2 0  9996,2 55414  69.9993 121.3074 0002970 271.6129 339.0036 14.99319628 19657,6947.134,96.044,571.063,566.936,0.0
55414.0,STARLINK-5620,PAYLOAD,2023-05-31 00:00:02,14.99333531,0.0003026,69.9997,120.2552,268.126,70.8581,-0.0029154,-0.00035617,0.0,0 STARLINK-5620,1 55414U 23014Z   23151.00002315 -.00035617  00000-0 -29154-2 0  9999,2 55414  69.9997 120.2552 0003026 268.1260  70.8581 14.99333531  1307,6947.091,96.043,571.058,566.854,0.0
55414.0,STARLINK-5620,PAYLOAD,2023-05-31 06:00:02,14.99299309,0.0002971,69.9995,119.6239,274.3484,333.6478,-0.00023366,-2.952e-05,0.0,0 STARLINK-5620,1 55414U 23014Z   23151.25002315 -.00002952  00000-0 -23366-3 0  9992,2 55414  69.9995 119.6239 0002971 274.3484 333.6478 14.99299309 19751,6947.197,96.045,571.126,566.998,0.0
55414.0,STARLINK-5620,PAYLOAD,2023-05-31 14:00:01,14.99309659,0.0002908,69.9994,118.7822,273.2374,333.3426,-0.0030547,-0.00037282,0.0,0 STARLINK-5620,1 55414U 23014Z   23151.58334491 -.00037282  00000-0 -30547-2 0  9993,2 55414  69.9994 118.7822 0002908 273.2374 333.3426 14.99309659  1306,6947.165,96.044,571.05,567.01,0.0
55414.0,STARLINK-5620,PAYLOAD,2023-05-31 22:00:00,14.99304653,0.0002905,69.9997,117.9406,268.5969,336.6173,0.00066842,8.095e-05,0.0,0 STARLINK-5620,1 55414U 23014Z   23151.91667824  .00008095  00000-0  66842-3 0  9995,2 55414  69.9997 117.9406 0002905 268.5969 336.6173 14.99304653  1306,6947.18,96.045,571.064,567.027,0.0
55414.0,STARLINK-5620,PAYLOAD,2023-06-01 12:00:02,14.99318097,0.0002834,69.9993,116.4675,273.9652,238.9533,-0.0035099,-0.00042799,0.0,0 STARLINK-5620,1 55414U 23014Z   23152.50002315 -.00042799  00000-0 -35099-2 0  9999,2 55414  69.9993 116.4675 0002834 273.9652 238.9533 14.99318097  1305,6947.139,96.044,570.973,567.035,0.0
55414.0,STARLINK-5620,PAYLOAD,2023-06-01 22:00:00,14.99310916,0.000285,69.9998,115.4154,266.8789,334.2791,0.00048623,5.862e-05,0.0,0 STARLINK-5620,1 55414U 23014Z   23152.91667824  .00005862  00000-0  48623-3 0  9992,2 55414  69.9998 115.4154 0002850 266.8789 334.2791 14.99310916 20007,6947.161,96.044,571.006,567.046,0.0
55414.0,STARLINK-5620,PAYLOAD,2023-06-02 14:00:01,14.99298427,0.00029,69.9997,113.7318,270.8052,327.6584,-0.0023778,-0.00029067,0.0,0 STARLINK-5620,1 55414U 23014Z   23153.58334491 -.00029067  00000-0 -23778-2 0  9995,2 55414  69.9997 113.7318 0002900 270.8052 327.6584 14.99298427 20102,6947.2,96.045,571.079,567.05,0.0
55414.0,STARLINK-5620,PAYLOAD,2023-06-02 22:00:00,14.99302484,0.0002925,70.0002,112.8902,266.1005,330.9866,9.6814e-05,1.091e-05,0.0,0 STARLINK-5620,1 55414U 23014Z   23153.91667824  .00001091  00000-0  96814-4 0  9999,2 55414  70.0002 112.8902 0002925 266.1005 330.9866 14.99302484  1304,6947.187,96.045,571.084,567.02,0.0
55414.0,STARLINK-5620,PAYLOAD,2023-06-03 03:21:03,14.99296576,0.0002729,69.999,112.327,266.2851,93.7996,-2.8774e-05,-4.46e-06,0.0,0 STARLINK-5620,1 55414U 23014Z   23154.13962296 -.00000446  00000-0 -28774-4 0  9990,2 55414  69.9990 112.3270 0002729 266.2851  93.7996 14.99296576 20192,6947.205,96.045,570.966,567.175,0.0
55414.0,STARLINK-5620,PAYLOAD,2023-06-03 06:33:12,14.99295529,0.0002734,69.999,111.9901,266.0534,94.0313,-3.86e-05,-5.66e-06,0.0,0 STARLINK-5620,1 55414U 23014Z   23154.27305781 -.00000566  00000-0 -38600-4 0  9997,2 55414  69.9990 111.9901 0002734 266.0534  94.0313 14.99295529 20217,6947.209,96.045,570.973,567.174,0.0
55414.0,STARLINK-5620,PAYLOAD,2023-06-03 20:57:50,14.9930135,0.0002763,69.999,110.4736,265.9623,94.1221,1.8602e-05,1.34e-06,0.0,0 STARLINK-5620,1 55414U 23014Z   23154.87350422  .00000134  00000-0  18602-4 0  9994,2 55414  69.9990 110.4736 0002763 265.9623  94.1221 14.99301350 20305,6947.191,96.045,570.975,567.136,0.0
55414.0,STARLINK-5620,PAYLOAD,2023-06-04 03:22:07,14.99302854,0.0002777,69.999,109.8,266.7647,93.3195,3.2476e-05,3.04e-06,0.0,0 STARLINK-5620,1 55414U 23014Z   23155.14036991  .00000304  00000-0  32476-4 0  9991,2 55414  69.9990 109.8000 0002777 266.7647  93.3195 14.99302854 20346,6947.186,96.045,570.98,567.122,0.0
55414.0,STARLINK-5620,PAYLOAD,2023-06-04 06:34:17,14.99293268,0.0002804,69.999,109.4628,267.553,92.5308,-6.8536e-05,-9.32e-06,0.0,0 STARLINK-5620,1 55414U 23014Z   23155.27381226 -.00000932  00000-0 -68536-4 0  9994,2 55414  69.9990 109.4628 0002804 267.5530  92.5308 14.99293268 20366,6947.216,96.045,571.029,567.133,0.0
55414.0,STARLINK-5620,PAYLOAD,2023-06-04 19:23:33,14.98823452,0.0003155,69.9989,108.1174,254.7646,105.3165,-0.0048475,-0.00058195,0.0,0 STARLINK-5620,1 55414U 23014Z   23155.80802464 -.00058195  00000-0 -48475-2 0  9997,2 55414  69.9989 108.1174 0003155 254.7646 105.3165 14.98823452 20448,6948.667,96.075,572.725,568.34,0.0
55414.0,STARLINK-5620,PAYLOAD,2023-06-04 20:59:42,14.98776418,0.0003034,69.9989,107.9491,267.2144,92.8668,-0.0052754,-0.00063201,0.0,0 STARLINK-5620,1 55414U 23014Z   23155.87480281 -.00063201  00000-0 -52754-2 0  9992,2 55414  69.9989 107.9491 0003034 267.2144  92.8668 14.98776418 20453,6948.813,96.078,572.786,568.569,0.0
55414.0,STARLINK-5620,PAYLOAD,2023-06-05 05:00:15,14.98742343,0.0002987,69.9985,107.1072,267.5727,92.509,-0.0052044,-0.00062304,0.0,0 STARLINK-5620,1 55414U 23014Z   23156.20851312 -.00062304  00000-0 -52044-2 0  9992,2 55414  69.9985 107.1072 0002987 267.5727  92.5090 14.98742343 20504,6948.918,96.081,572.859,568.707,0.0
55414.0,STARLINK-5620,PAYLOAD,2023-06-05 09:48:35,14.9871781,0.0003012,69.9985,106.6021,267.1016,92.9799,-0.0051927,-0.00062126,0.0,0 STARLINK-5620,1 55414U 23014Z   23156.40874814 -.00062126  00000-0 -51927-2 0  9997,2 55414  69.9985 106.6021 0003012 267.1016  92.9799 14.98717810 20533,6948.994,96.082,572.952,568.766,0.0
55414.0,STARLINK-5620,PAYLOAD,2023-06-05 21:01:23,14.98674188,0.0002941,69.9986,105.4235,266.5425,93.5398,-0.0050286,-0.00060115,0.0,0 STARLINK-5620,1 55414U 23014Z   23156.87597101 -.00060115  00000-0 -50286-2 0  9992,2 55414  69.9986 105.4235 0002941 266.5425  93.5398 14.98674188 20605,6949.129,96.085,573.037,568.95,0.0
55414.0,STARLINK-5620,PAYLOAD,2023-06-06 00:13:37,14.98661405,0.0003001,69.9986,105.0868,266.3448,93.7368,-0.0049416,-0.00059066,0.0,0 STARLINK-5620,1 55414U 23014Z   23157.00946625 -.00059066  00000-0 -49416-2 0  9993,2 55414  69.9986 105.0868 0003001 266.3448  93.7368 14.98661405 20623,6949.168,96.086,573.119,568.948,0.0
55414.0,STARLINK-5620,PAYLOAD,2023-06-06 06:38:06,14.98640558,0.0003049,69.9987,104.4133,268.6676,91.4134,-0.0046988,-0.00056161,0.0,0 STARLINK-5620,1 55414U 23014Z   23157.27645870 -.00056161  00000-0 -46988-2 0  9994,2 55414  69.9987 104.4133 0003049 268.6676  91.4134 14.98640558 20668,6949.233,96.087,573.217,568.979,0.0
55414.0,STARLINK-5620,PAYLOAD,2023-06-06 19:27:09,14.98352417,0.0002955,69.9989,103.0667,260.8568,99.2257,-0.0004119,-5.007e-05,0.0,0 STARLINK-5620,1 55414U 23014Z   23157.81052617 -.00005007  00000-0 -41190-3 0  9999,2 55414  69.9989 103.0667 0002955 260.8568  99.2257 14.98352417 20741,6950.124,96.106,574.042,569.935,0.0
55414.0,STARLINK-5620,PAYLOAD,2023-06-07 00:15:33,14.98351409,0.0002794,69.9989,102.5617,261.677,98.4072,-0.00042102,-5.116e-05,0.0,0 STARLINK-5620,1 55414U 23014Z   23158.01080521 -.00005116  00000-0 -42102-3 0  9992,2 55414  69.9989 102.5617 0002794 261.6770  98.4072 14.98351409 20774,6950.127,96.106,573.934,570.05,0.0
55414.0,STARLINK-5620,PAYLOAD,2023-06-07 14:00:01,14.98314929,0.0002834,70.0011,101.1186,272.3865,295.0865,0.00068957,8.141e-05,0.0,0 STARLINK-5620,1 55414U 23014Z   23158.58334491  .00008141  00000-0  68957-3 0  9997,2 55414  70.0011 101.1186 0002834 272.3865 295.0865 14.98314929 20858,6950.239,96.108,574.074,570.135,0.0
